start=new Date('2023-06-18T00:00:00.000Z').valueOf();
sats=[{"TLE_LINE2":"2 53470  97.6559 289.6763 0001864  93.5674 266.5764 15.01257880 46537","MEAN_MOTION_DOT":"-0.00000439","ARG_OF_PERICENTER":"93.5674","NORAD_CAT_ID":"53470","BSTAR":"-0.00002960700000","OBJECT_TYPE":"PAYLOAD","PERIOD":"95.920","FILE":"3935891","INCLINATION":"97.6559","EPOCH":"2023-06-17T14:27:30.320928","CENTER_NAME":"EARTH","APOAPSIS":"564.312","CLASSIFICATION_TYPE":"U","MEAN_ANOMALY":"266.5764","REV_AT_EPOCH":"4653","MEAN_ELEMENT_THEORY":"SGP4","MEAN_MOTION":"15.01257880","SITE":"AFWTR","ECCENTRICITY":"0.00018640","REF_FRAME":"TEME","PERIAPSIS":"561.725","ELEMENT_SET_NO":"999","RCS_SIZE":"LARGE","DECAY_DATE":null,"RA_OF_ASC_NODE":"289.6763","OBJECT_ID":"2022-099F","SEMIMAJOR_AXIS":"6941.153","LAUNCH_DATE":"2022-08-12","MEAN_MOTION_DDOT":"0.0000000000000","EPHEMERIS_TYPE":"0","GP_ID":"234172925","COUNTRY_CODE":"US","OBJECT_NAME":"STARLINK-4393","TIME_SYSTEM":"UTC","TLE_LINE1":"1 53470U 22099F   23168.60243427 -.00000439  00000-0 -29607-4 0  9995"},{"OBJECT_NAME":"STARLINK-4316","TIME_SYSTEM":"UTC","TLE_LINE1":"1 53471U 22099G   23168.79682526 -.00000052  00000-0  57905-6 0  9997","LAUNCH_DATE":"2022-08-12","EPHEMERIS_TYPE":"0","MEAN_MOTION_DDOT":"0.0000000000000","GP_ID":"234171673","COUNTRY_CODE":"US","ELEMENT_SET_NO":"999","DECAY_DATE":null,"RCS_SIZE":"LARGE","SEMIMAJOR_AXIS":"6941.142","RA_OF_ASC_NODE":"289.8727","OBJECT_ID":"2022-099G","REF_FRAME":"TEME","PERIAPSIS":"562.164","MEAN_ELEMENT_THEORY":"SGP4","SITE":"AFWTR","MEAN_MOTION":"15.01261540","ECCENTRICITY":"0.00012150","EPOCH":"2023-06-17T19:07:25.702464","CENTER_NAME":"EARTH","INCLINATION":"97.6550","FILE":"3935891","APOAPSIS":"563.850","MEAN_ANOMALY":"253.5671","CLASSIFICATION_TYPE":"U","REV_AT_EPOCH":"4656","PERIOD":"95.919","MEAN_MOTION_DOT":"-0.00000052","TLE_LINE2":"2 53471  97.6550 289.8727 0001215 106.5686 253.5671 15.01261540 46563","ARG_OF_PERICENTER":"106.5686","BSTAR":"0.00000057905000","NORAD_CAT_ID":"53471","OBJECT_TYPE":"PAYLOAD"},{"OBJECT_TYPE":"PAYLOAD","NORAD_CAT_ID":"53472","BSTAR":"-0.00000278040000","ARG_OF_PERICENTER":"105.2256","MEAN_MOTION_DOT":"-0.00000095","TLE_LINE2":"2 53472  97.6555 289.8742 0001237 105.2256 254.9105 15.01261024 46563","PERIOD":"95.919","REV_AT_EPOCH":"4656","CLASSIFICATION_TYPE":"U","MEAN_ANOMALY":"254.9105","APOAPSIS":"563.867","INCLINATION":"97.6555","FILE":"3935891","EPOCH":"2023-06-17T19:10:05.798208","CENTER_NAME":"EARTH","ECCENTRICITY":"0.00012370","MEAN_MOTION":"15.01261024","SITE":"AFWTR","MEAN_ELEMENT_THEORY":"SGP4","PERIAPSIS":"562.150","REF_FRAME":"TEME","RA_OF_ASC_NODE":"289.8742","OBJECT_ID":"2022-099H","SEMIMAJOR_AXIS":"6941.144","RCS_SIZE":"LARGE","DECAY_DATE":null,"ELEMENT_SET_NO":"999","COUNTRY_CODE":"US","GP_ID":"234171923","MEAN_MOTION_DDOT":"0.0000000000000","EPHEMERIS_TYPE":"0","LAUNCH_DATE":"2022-08-12","TLE_LINE1":"1 53472U 22099H   23168.79867822 -.00000095  00000-0 -27804-5 0  9994","TIME_SYSTEM":"UTC","OBJECT_NAME":"STARLINK-4447"},{"PERIAPSIS":"561.929","REF_FRAME":"TEME","RA_OF_ASC_NODE":"289.8678","OBJECT_ID":"2022-099J","SEMIMAJOR_AXIS":"6941.152","RCS_SIZE":"LARGE","DECAY_DATE":null,"ELEMENT_SET_NO":"999","COUNTRY_CODE":"US","GP_ID":"234172675","MEAN_MOTION_DDOT":"0.0000000000000","EPHEMERIS_TYPE":"0","LAUNCH_DATE":"2022-08-12","TLE_LINE1":"1 53473U 22099J   23168.79312758 -.00000136  00000-0 -60306-5 0  9998","TIME_SYSTEM":"UTC","OBJECT_NAME":"STARLINK-4383","OBJECT_TYPE":"PAYLOAD","NORAD_CAT_ID":"53473","BSTAR":"-0.00000603060000","ARG_OF_PERICENTER":"108.1793","MEAN_MOTION_DOT":"-0.00000136","TLE_LINE2":"2 53473  97.6550 289.8678 0001567 108.1793 251.9602 15.01258381 46562","PERIOD":"95.920","REV_AT_EPOCH":"4656","CLASSIFICATION_TYPE":"U","MEAN_ANOMALY":"251.9602","APOAPSIS":"564.105","FILE":"3935891","INCLINATION":"97.6550","CENTER_NAME":"EARTH","EPOCH":"2023-06-17T19:02:06.222912","ECCENTRICITY":"0.00015670","SITE":"AFWTR","MEAN_MOTION":"15.01258381","MEAN_ELEMENT_THEORY":"SGP4"},{"TLE_LINE1":"1 53474U 22099K   23168.78595298 -.00005837  00000-0 -44998-3 0  9990","TIME_SYSTEM":"UTC","OBJECT_NAME":"STARLINK-4445","COUNTRY_CODE":"US","GP_ID":"234173425","MEAN_MOTION_DDOT":"0.0000000000000","EPHEMERIS_TYPE":"0","LAUNCH_DATE":"2022-08-12","RA_OF_ASC_NODE":"289.8588","OBJECT_ID":"2022-099K","SEMIMAJOR_AXIS":"6941.083","RCS_SIZE":"LARGE","DECAY_DATE":null,"ELEMENT_SET_NO":"999","PERIAPSIS":"562.624","REF_FRAME":"TEME","ECCENTRICITY":"0.00004660","SITE":"AFWTR","MEAN_MOTION":"15.01280825","MEAN_ELEMENT_THEORY":"SGP4","REV_AT_EPOCH":"4656","CLASSIFICATION_TYPE":"U","MEAN_ANOMALY":"153.0019","APOAPSIS":"563.271","INCLINATION":"97.6543","FILE":"3935891","EPOCH":"2023-06-17T18:51:46.337472","CENTER_NAME":"EARTH","PERIOD":"95.918","OBJECT_TYPE":"PAYLOAD","NORAD_CAT_ID":"53474","BSTAR":"-0.00044998000000","ARG_OF_PERICENTER":"207.1181","TLE_LINE2":"2 53474  97.6543 289.8588 0000466 207.1181 153.0019 15.01280825 46565","MEAN_MOTION_DOT":"-0.00005837"},{"PERIOD":"95.919","BSTAR":"-0.00003605600000","NORAD_CAT_ID":"53475","OBJECT_TYPE":"PAYLOAD","MEAN_MOTION_DOT":"-0.00000522","TLE_LINE2":"2 53475  97.6552 289.8656 0001285 111.5782 248.5579 15.01259471 47269","ARG_OF_PERICENTER":"111.5782","ECCENTRICITY":"0.00012850","MEAN_ELEMENT_THEORY":"SGP4","MEAN_MOTION":"15.01259471","SITE":"AFWTR","CLASSIFICATION_TYPE":"U","MEAN_ANOMALY":"248.5579","REV_AT_EPOCH":"4726","EPOCH":"2023-06-17T18:59:25.926720","CENTER_NAME":"EARTH","INCLINATION":"97.6552","FILE":"3935891","APOAPSIS":"563.905","SEMIMAJOR_AXIS":"6941.148","OBJECT_ID":"2022-099L","RA_OF_ASC_NODE":"289.8656","ELEMENT_SET_NO":"999","DECAY_DATE":null,"RCS_SIZE":"LARGE","PERIAPSIS":"562.122","REF_FRAME":"TEME","TLE_LINE1":"1 53475U 22099L   23168.79127230 -.00000522  00000-0 -36056-4 0  9992","OBJECT_NAME":"STARLINK-4389","TIME_SYSTEM":"UTC","GP_ID":"234172173","COUNTRY_CODE":"US","LAUNCH_DATE":"2022-08-12","EPHEMERIS_TYPE":"0","MEAN_MOTION_DDOT":"0.0000000000000"},{"SEMIMAJOR_AXIS":"6941.150","OBJECT_ID":"2022-099M","RA_OF_ASC_NODE":"289.8698","DECAY_DATE":null,"RCS_SIZE":"LARGE","ELEMENT_SET_NO":"999","PERIAPSIS":"561.936","REF_FRAME":"TEME","TLE_LINE1":"1 53476U 22099M   23168.79498287  .00000439  00000-0  38785-4 0  9992","TIME_SYSTEM":"UTC","OBJECT_NAME":"STARLINK-4378","COUNTRY_CODE":"US","GP_ID":"234172423","EPHEMERIS_TYPE":"0","MEAN_MOTION_DDOT":"0.0000000000000","LAUNCH_DATE":"2022-08-12","PERIOD":"95.920","OBJECT_TYPE":"PAYLOAD","BSTAR":"0.00003878500000","NORAD_CAT_ID":"53476","ARG_OF_PERICENTER":"96.6887","TLE_LINE2":"2 53476  97.6551 289.8698 0001555  96.6887 263.4514 15.01258848 46568","MEAN_MOTION_DOT":"0.00000439","ECCENTRICITY":"0.00015550","MEAN_MOTION":"15.01258848","SITE":"AFWTR","MEAN_ELEMENT_THEORY":"SGP4","REV_AT_EPOCH":"4656","MEAN_ANOMALY":"263.4514","CLASSIFICATION_TYPE":"U","APOAPSIS":"564.095","EPOCH":"2023-06-17T19:04:46.519968","CENTER_NAME":"EARTH","INCLINATION":"97.6551","FILE":"3935891"},{"TLE_LINE1":"1 53477U 22099N   23168.59341073  .00000426  00000-0  37791-4 0  9993","TIME_SYSTEM":"UTC","OBJECT_NAME":"STARLINK-4412","COUNTRY_CODE":"US","GP_ID":"234173175","EPHEMERIS_TYPE":"0","MEAN_MOTION_DDOT":"0.0000000000000","LAUNCH_DATE":"2022-08-12","SEMIMAJOR_AXIS":"6941.135","RA_OF_ASC_NODE":"289.6541","OBJECT_ID":"2022-099N","DECAY_DATE":null,"RCS_SIZE":"LARGE","ELEMENT_SET_NO":"999","PERIAPSIS":"561.973","REF_FRAME":"TEME","ECCENTRICITY":"0.00014790","SITE":"AFWTR","MEAN_MOTION":"15.01263990","MEAN_ELEMENT_THEORY":"SGP4","REV_AT_EPOCH":"4723","CLASSIFICATION_TYPE":"U","MEAN_ANOMALY":"250.4407","APOAPSIS":"564.026","CENTER_NAME":"EARTH","EPOCH":"2023-06-17T14:14:30.687072","INCLINATION":"97.6557","FILE":"3935891","PERIOD":"95.919","OBJECT_TYPE":"PAYLOAD","BSTAR":"0.00003779100000","NORAD_CAT_ID":"53477","ARG_OF_PERICENTER":"109.6977","MEAN_MOTION_DOT":"0.00000426","TLE_LINE2":"2 53477  97.6557 289.6541 0001479 109.6977 250.4407 15.01263990 47236"},{"TLE_LINE1":"1 53478U 22099P   23168.78756893  .00000058  00000-0  91289-5 0  9999","TIME_SYSTEM":"UTC","OBJECT_NAME":"STARLINK-4433","COUNTRY_CODE":"US","GP_ID":"234172926","MEAN_MOTION_DDOT":"0.0000000000000","EPHEMERIS_TYPE":"0","LAUNCH_DATE":"2022-08-12","OBJECT_ID":"2022-099P","RA_OF_ASC_NODE":"289.8738","SEMIMAJOR_AXIS":"6941.160","RCS_SIZE":"LARGE","DECAY_DATE":null,"ELEMENT_SET_NO":"999","PERIAPSIS":"562.506","REF_FRAME":"TEME","ECCENTRICITY":"0.00007480","SITE":"AFWTR","MEAN_MOTION":"15.01255592","MEAN_ELEMENT_THEORY":"SGP4","REV_AT_EPOCH":"4656","MEAN_ANOMALY":"242.7380","CLASSIFICATION_TYPE":"U","APOAPSIS":"563.545","INCLINATION":"97.6555","FILE":"3935891","CENTER_NAME":"EARTH","EPOCH":"2023-06-17T18:54:05.955552","PERIOD":"95.920","OBJECT_TYPE":"PAYLOAD","NORAD_CAT_ID":"53478","BSTAR":"0.00000912890000","ARG_OF_PERICENTER":"117.3921","MEAN_MOTION_DOT":"0.00000058","TLE_LINE2":"2 53478  97.6555 289.8738 0000748 117.3921 242.7380 15.01255592 46566"},{"PERIOD":"95.919","BSTAR":"0.00003939400000","NORAD_CAT_ID":"53479","OBJECT_TYPE":"PAYLOAD","TLE_LINE2":"2 53479  97.6542 289.6623 0000314 173.7669 186.3559 15.01259997 46539","MEAN_MOTION_DOT":"0.00000447","ARG_OF_PERICENTER":"173.7669","ECCENTRICITY":"0.00003140","MEAN_ELEMENT_THEORY":"SGP4","SITE":"AFWTR","MEAN_MOTION":"15.01259997","MEAN_ANOMALY":"186.3559","CLASSIFICATION_TYPE":"U","REV_AT_EPOCH":"4653","EPOCH":"2023-06-17T14:03:29.880000","CENTER_NAME":"EARTH","INCLINATION":"97.6542","FILE":"3935891","APOAPSIS":"563.230","SEMIMAJOR_AXIS":"6941.147","RA_OF_ASC_NODE":"289.6623","OBJECT_ID":"2022-099Q","ELEMENT_SET_NO":"999","DECAY_DATE":null,"RCS_SIZE":"LARGE","PERIAPSIS":"562.794","REF_FRAME":"TEME","TLE_LINE1":"1 53479U 22099Q   23168.58576250  .00000447  00000-0  39394-4 0  9995","OBJECT_NAME":"STARLINK-4436","TIME_SYSTEM":"UTC","GP_ID":"234171674","COUNTRY_CODE":"US","LAUNCH_DATE":"2022-08-12","EPHEMERIS_TYPE":"0","MEAN_MOTION_DDOT":"0.0000000000000"}];
